1 45383U 20019Z   22365.16191252  .00021278  00000-0  14418-2 0  9990
2 45383  53.0549 334.3989 0001882  43.9756 316.1383 15.06432189154489
1 45383U 20019Z   22365.29460299  .00020099  00000-0  13630-2 0  9999
2 45383  53.0547 333.8032 0001854  44.6517 315.4621 15.06436402154504
1 45383U 20019Z   22365.62633349  .00009361  00000-0  64602-3 0  9999
2 45383  53.0549 332.3146 0001986  43.1721 316.9424 15.06428940154553
1 45383U 20019Z   22365.62633349  .00009361  00000-0  64602-3 0  9999
2 45383  53.0549 332.3146 0001986  43.1721 316.9424 15.06428940154553
1 45383U 20019Z   23001.28980409 -.00005264  00000-0 -33478-3 0  9998
2 45383  53.0546 329.3357 0002014  44.5359 315.5792 15.06394491154652
1 45383U 20019Z   23001.35615399  .00004115  00000-0  29513-3 0  9996
2 45383  53.0543 329.0381 0002013  44.5617 315.5534 15.06381586154665
1 45383U 20019Z   23002.28502288  .00002622  00000-0  19493-3 0  9998
2 45383  53.0548 324.8669 0001995  48.6614 311.4546 15.06381952154803
1 45383U 20019Z   23002.28502288  .00002622  00000-0  19493-3 0  9998
2 45383  53.0548 324.8669 0001995  48.6614 311.4546 15.06381952154803
1 45383U 20019Z   23002.61675518  .00001246  00000-0  10254-3 0  9999
2 45383  53.0554 323.3791 0002064  46.5877 313.5284 15.06393496154859
1 45383U 20019Z   23002.61675518  .00001246  00000-0  10254-3 0  9999
2 45383  53.0554 323.3791 0002064  46.5877 313.5284 15.06393496154859
1 45383U 20019Z   23003.34657364  .00004751  00000-0  33770-3 0  9991
2 45383  53.0554 320.1024 0002002  47.8207 312.2952 15.06394596154968
1 45383U 20019Z   23004.20907838  .00003920  00000-0  28184-3 0  9991
2 45383  53.0553 316.2305 0002028  47.7527 312.3634 15.06406729155092
1 45383U 20019Z   23004.34177176  .00004119  00000-0  29519-3 0  9994
2 45383  53.0551 315.6349 0002038  48.4545 311.6618 15.06407135155119
1 45383U 20019Z   23004.87253463 -.00001751  00000-0 -98610-4 0  9996
2 45383  53.0553 313.2523 0002099  48.9466 311.1704 15.06421368155196
1 45383U 20019Z   23004.87253463 -.00001751  00000-0 -98610-4 0  9996
2 45383  53.0553 313.2523 0002099  48.9466 311.1704 15.06421368155196
1 45383U 20019Z   23005.27061777  .00004288  00000-0  30646-3 0  9996
2 45383  53.0553 311.4652 0002069  51.6628 308.4547 15.06415441155253
1 45383U 20019Z   23005.53599989  .00004747  00000-0  33720-3 0  9992
2 45383  53.0554 310.2739 0002053  52.6742 307.4434 15.06420702155292
1 45383U 20019Z   23006.26581628 -.00001388  00000-0 -74308-4 0  9992
2 45383  53.0552 306.9975 0001797  49.9703 310.1444 15.06403932155405
1 45383U 20019Z   23006.53120855 -.00004069  00000-0 -25445-3 0  9999
2 45383  53.0553 305.8075 0001347  27.2537 332.8523 15.06391855155443
1 45383U 20019Z   23006.79660446 -.00005414  00000-0 -34498-3 0  9995
2 45383  53.0562 304.6139 0001919  51.3680 308.7481 15.06381172155483
1 45383U 20019Z   23006.86294981 -.00005242  00000-0 -33342-3 0  9996
2 45383  53.0544 304.3171 0001868  46.2517 313.8627 15.06385096155490
1 45383U 20019Z   23007.19468464 -.00000064  00000-0  14587-4 0  9999
2 45383  53.0548 302.8278 0001929  51.3493 308.7668 15.06393099155549
1 45383U 20019Z   23007.19468464 -.00000064  00000-0  14587-4 0  9999
2 45383  53.0548 302.8278 0001929  51.3493 308.7668 15.06393099155549
1 45383U 20019Z   23007.85815609  .00015041  00000-0  10262-2 0  9993
2 45383  53.0546 299.8494 0002100  55.9673 304.1515 15.06410102155641
1 45383U 20019Z   23008.52162418  .00004198  00000-0  30057-3 0  9997
2 45383  53.0535 296.8719 0001724  49.4543 310.6596 15.06401570155742
1 45383U 20019Z   23008.78701210  .00004565  00000-0  32512-3 0  9990
2 45383  53.0540 295.6803 0001880  52.8311 307.2850 15.06403739155781
1 45383U 20019Z   23009.51682214  .00005444  00000-0  38396-3 0  9997
2 45383  53.0530 292.4043 0001864  52.0408 308.0750 15.06410176155895
1 45383U 20019Z   23010.18029215  .00001482  00000-0  11835-3 0  9995
2 45383  53.0544 289.4266 0002042  61.2567 298.8627 15.06402550155997
1 45383U 20019Z   23010.18029215  .00001482  00000-0  11835-3 0  9995
2 45383  53.0544 289.4266 0002042  61.2567 298.8627 15.06402550155997
1 45383U 20019Z   23011.04280560 -.00001018  00000-0 -49466-4 0  9992
2 45383  53.0542 285.5536 0001924  60.3793 299.7387 15.06395689156124
1 45383U 20019Z   23011.44087799  .00003634  00000-0  26267-3 0  9992
2 45383  53.0542 283.7666 0002032  59.6531 300.4659 15.06411520156181
1 45383U 20019Z   23011.44087799  .00003634  00000-0  26267-3 0  9992
2 45383  53.0542 283.7666 0002032  59.6531 300.4659 15.06411520156181
1 45383U 20019Z   23011.77261360  .00003645  00000-0  26345-3 0  9995
2 45383  53.0558 282.2791 0001775  69.5243 290.5937 15.06407156156238
1 45383U 20019Z   23011.77261360  .00003645  00000-0  26345-3 0  9995
2 45383  53.0558 282.2791 0001775  69.5243 290.5937 15.06407156156238
1 45383U 20019Z   23012.90049458 -.00002629  00000-0 -15752-3 0  9996
2 45383  53.0544 277.2137 0001677  59.1087 301.0067 15.06427768156405
1 45383U 20019Z   23013.03318442  .00004038  00000-0  28960-3 0  9992
2 45383  53.0552 276.6207 0001611  68.5910 291.5251 15.06428548156429
1 45383U 20019Z   23013.43128626 -.00001587  00000-0 -87671-4 0  9992
2 45383  53.0556 274.8313 0001740  56.7891 303.3265 15.06398277156489
1 45383U 20019Z   23013.43128626 -.00001587  00000-0 -87671-4 0  9992
2 45383  53.0556 274.8313 0001740  56.7891 303.3265 15.06398277156489
1 45383U 20019Z   23013.76308031 -.00008136  00000-0 -52890-3 0  9999
2 45383  53.0550 273.3422 0001731  65.3746 294.7424 15.06331789156534
1 45383U 20019Z   23013.76308031 -.00008136  00000-0 -52890-3 0  9999
2 45383  53.0550 273.3422 0001731  65.3746 294.7424 15.06331789156534
1 45383U 20019Z   23014.09478573 -.00007176  00000-0 -46389-3 0  9994
2 45383  53.0545 271.8508 0001508  64.6348 295.4797 15.06355206156584
1 45383U 20019Z   23014.42651532 -.00002251  00000-0 -13234-3 0  9991
2 45383  53.0540 270.3635 0001385  68.0988 292.0148 15.06375842156632
1 45383U 20019Z   23015.08998376  .00002532  00000-0  18884-3 0  9990
2 45383  53.0536 267.3844 0001653  71.6484 288.4684 15.06393867156736
1 45383U 20019Z   23015.08998376  .00002532  00000-0  18884-3 0  9990
2 45383  53.0536 267.3844 0001653  71.6484 288.4684 15.06393867156736
1 45383U 20019Z   23015.68711784  .00014889  00000-0  10167-2 0  9995
2 45383  53.0527 264.7047 0001729  75.2936 284.8244 15.06385302156825
1 45383U 20019Z   23015.95249629  .00014553  00000-0  99359-3 0  9998
2 45383  53.0517 263.5128 0001215  80.6181 279.4946 15.06411045156860
1 45383U 20019Z   23015.95249629  .00014553  00000-0  99359-3 0  9998
2 45383  53.0517 263.5128 0001215  80.6181 279.4946 15.06411045156860
1 45383U 20019Z   23016.94769955 -.00002405  00000-0 -14261-3 0  9991
2 45383  53.0503 259.0470 0001556  67.7592 292.3562 15.06395331157010
1 45383U 20019Z   23016.94769955 -.00002405  00000-0 -14261-3 0  9991
2 45383  53.0503 259.0470 0001556  67.7592 292.3562 15.06395331157010
1 45383U 20019Z   23017.08039231 -.00002246  00000-0 -13196-3 0  9993
2 45383  53.0516 258.4494 0001403  66.8096 293.3040 15.06395401157035
1 45383U 20019Z   23017.67751475  .00000787  00000-0  71754-4 0  9990
2 45383  53.0518 255.7688 0001383  65.1631 294.9502 15.06397527157127
1 45383U 20019Z   23018.00924703  .00005836  00000-0  41028-3 0  9994
2 45383  53.0518 254.2795 0001447  66.8375 293.2766 15.06405737157176
1 45383U 20019Z   23018.34098187  .00007108  00000-0  49554-3 0  9995
2 45383  53.0523 252.7890 0001425  68.4316 291.6825 15.06406357157223
1 45383U 20019Z   23018.93809865  .00005980  00000-0  41985-3 0  9999
2 45383  53.0515 250.1093 0001359  71.3158 288.7978 15.06411534157313
1 45383U 20019Z   23019.07079031  .00006211  00000-0  43533-3 0  9998
2 45383  53.0516 249.5134 0001389  71.0142 289.0997 15.06414490157336
1 45383U 20019Z   23019.33618418  .00000083  00000-0  24494-4 0  9992
2 45383  53.0516 248.3215 0001692  74.8242 285.2934 15.06397508157375
1 45383U 20019Z   23019.60157408 -.00001971  00000-0 -11349-3 0  9992
2 45383  53.0504 247.1310 0001472  80.6378 279.4777 15.06391046157412
1 45383U 20019Z   23020.33138687  .00001294  00000-0  10575-3 0  9998
2 45383  53.0511 243.8554 0001246  88.5471 271.5660 15.06400096157525
1 45383U 20019Z   23020.92850880  .00011631  00000-0  79821-3 0  9994
2 45383  53.0518 241.1750 0001303  89.4012 270.7126 15.06410377157617
1 45383U 20019Z   23021.32658927  .00003390  00000-0  24633-3 0  9991
2 45383  53.0506 239.3864 0001193  87.9564 272.1561 15.06402603157679
1 45383U 20019Z   23022.58718177  .00000602  00000-0  59326-4 0  9995
2 45383  53.0523 233.7282 0001326  82.5607 277.5533 15.06398753157866
1 45383U 20019Z   23024.57758772  .00000986  00000-0  85086-4 0  9998
2 45383  53.0518 224.7902 0001279  89.4493 270.6643 15.06397345158161
1 45383U 20019Z   23025.57278405  .00002138  00000-0  16235-3 0  9999
2 45383  53.0532 220.3234 0001338  94.8315 265.2827 15.06403851158317
1 45383U 20019Z   23025.83814964  .00004928  00000-0  34924-3 0  9998
2 45383  53.0522 219.1312 0001289  98.3251 261.7884 15.06426336158353
1 45383U 20019Z   23025.83814964  .00004928  00000-0  34924-3 0  9998
2 45383  53.0522 219.1312 0001289  98.3251 261.7884 15.06426336158353
1 45383U 20019Z   23026.56799300 -.00000739  00000-0 -30724-4 0  9998
2 45383  53.0519 215.8546 0001384  85.3617 274.7530 15.06391032158467
1 45383U 20019Z   23026.56799300 -.00000739  00000-0 -30724-4 0  9998
2 45383  53.0519 215.8546 0001384  85.3617 274.7530 15.06391032158467
1 45383U 20019Z   23027.49685117 -.00001173  00000-0 -59898-4 0  9997
2 45383  53.0522 211.6851 0001408  87.1575 272.9575 15.06392378158603
1 45383U 20019Z   23027.76223535 -.00003591  00000-0 -22230-3 0  9994
2 45383  53.0523 210.4937 0001362  90.3274 269.7871 15.06403266158643
1 45383U 20019Z   23027.76223535 -.00003591  00000-0 -22230-3 0  9994
2 45383  53.0523 210.4937 0001362  90.3274 269.7871 15.06403266158643
1 45383U 20019Z   23028.49205322  .00002270  00000-0  17129-3 0  9991
2 45383  53.0518 207.2168 0001346  86.2241 273.8902 15.06385713158756
1 45383U 20019Z   23028.49205322  .00002270  00000-0  17129-3 0  9991
2 45383  53.0518 207.2168 0001346  86.2241 273.8902 15.06385713158756
1 45383U 20019Z   23028.89013409  .00002381  00000-0  17872-3 0  9996
2 45383  53.0521 205.4295 0001309  86.9693 273.1446 15.06391283158810
1 45383U 20019Z   23029.68629787  .00003462  00000-0  25123-3 0  9995
2 45383  53.0514 201.8551 0001322  85.8034 274.3106 15.06398379158931
1 45383U 20019Z   23029.88533754  .00002825  00000-0  20849-3 0  9997
2 45383  53.0516 200.9614 0001307  85.8538 274.2600 15.06399814158961
1 45383U 20019Z   23030.48245767 -.00002788  00000-0 -16835-3 0  9999
2 45383  53.0514 198.2807 0001296  83.0086 277.1050 15.06401436159053
1 45383U 20019Z   23030.88054317  .00000902  00000-0  79445-4 0  9993
2 45383  53.0528 196.4935 0001351  92.2242 267.8902 15.06397372159110
1 45383U 20019Z   23030.88054317  .00000902  00000-0  79445-4 0  9993
2 45383  53.0528 196.4935 0001351  92.2242 267.8902 15.06397372159110
1 45383U 20019Z   23031.47766480  .00000183  00000-0  31158-4 0  9990
2 45383  53.0520 193.8130 0001339  92.4886 267.6256 15.06399987159206
1 45383U 20019Z   23031.80939303 -.00000569  00000-0 -19318-4 0  9997
2 45383  53.0524 192.3243 0001407 104.5331 255.5814 15.06409328159257
1 45383U 20019Z   23031.87574012  .00000101  00000-0  25674-4 0  9998
2 45383  53.0527 192.0267 0001471 108.1525 251.9624 15.06407150159260
